{
    "links": {
        "self": "http://www.neowsapp.com/rest/v1/neo/3781639?api_key=iIulBulltgU6a56xZRHN4H3l9WmuAYTsLGpBGhQ2"
    },
    "id": "3781639",
    "neo_reference_id": "3781639",
    "name": "(2017 SL10)",
    "designation": "2017 SL10",
    "nasa_jpl_url": "http://ssd.jpl.nasa.gov/sbdb.cgi?sstr=3781639",
    "absolute_magnitude_h": 24.2,
    "estimated_diameter": {
        "kilometers": {
            "estimated_diameter_min": 0.0384197891,
            "estimated_diameter_max": 0.0859092601
        },
        "meters": {
            "estimated_diameter_min": 38.4197891064,
            "estimated_diameter_max": 85.9092601232
        },
        "miles": {
            "estimated_diameter_min": 0.0238729428,
            "estimated_diameter_max": 0.0533815229
        },
        "feet": {
            "estimated_diameter_min": 126.0491808919,
            "estimated_diameter_max": 281.8545369825
        }
    },
    "is_potentially_hazardous_asteroid": false,
    "close_approach_data": [
        {
            "close_approach_date": "2017-09-16",
            "close_approach_date_full": "2017-Sep-16 11:48",
            "epoch_date_close_approach": 1505562480000,
            "relative_velocity": {
                "kilometers_per_second": "12.7292282681",
                "kilometers_per_hour": "45825.2217651802",
                "miles_per_hour": "28474.0107129254"
            },
            "miss_distance": {
                "astronomical": "0.186835251",
                "lunar": "72.678912639",
                "kilometers": "27950155.59051537",
                "miles": "17367421.345917306"
            },
            "orbiting_body": "Earth"
        }
    ],
    "orbital_data": {
        "orbit_id": "1",
        "orbit_determination_date": "2017-09-22 10:12:07",
        "first_observation_date": "2017-09-17",
        "last_observation_date": "2017-09-20",
        "data_arc_in_days": 3,
        "observations_used": 9,
        "orbit_uncertainty": "9",
        "minimum_orbit_intersection": ".184118",
        "jupiter_tisserand_invariant": "4.717",
        "epoch_osculation": "2458014.5",
        "eccentricity": ".1338270838433586",
        "semi_major_axis": "1.371043773749387",
        "inclination": "24.98849966411919",
        "ascending_node_longitude": "172.7956234160021",
        "orbital_period": "586.3749489868566",
        "perihelion_distance": "1.187560983686913",
        "perihelion_argument": "189.9807194533314",
        "aphelion_distance": "1.554526563811861",
        "perihelion_time": "2458022.195408324055",
        "mean_anomaly": "355.2754683646591",
        "mean_motion": ".61394164369063",
        "equinox": "J2000",
        "orbit_class": {
            "orbit_class_type": "AMO",
            "orbit_class_description": "Near-Earth asteroid orbits similar to that of 1221 Amor",
            "orbit_class_range": "1.017 AU < q (perihelion) < 1.3 AU"
        }
    },
    "is_sentry_object": false
}